[{"OBJECT_NAME":"STARLINK-32370","OBJECT_ID":"2024-191Q","EPOCH":"2026-03-09T07:42:22.621824","MEAN_MOTION":15.27602679,"ECCENTRICITY":0.00011443,"INCLINATION":43.0018,"RA_OF_ASC_NODE":156.2721,"ARG_OF_PERICENTER":255.1076,"MEAN_ANOMALY":104.9649,"EPHEMERIS_TYPE":0,"CLASSIFICATION_TYPE":"U","NORAD_CAT_ID":61635,"ELEMENT_SET_NO":999,"REV_AT_EPOCH":7748,"BSTAR":-0.00032540514,"MEAN_MOTION_DOT":-9.212e-5,"MEAN_MOTION_DDOT":0},{"OBJECT_NAME":"CZ-6A DEB","OBJECT_ID":"2022-151NB","EPOCH":"2026-03-09T18:26:17.609568","MEAN_MOTION":15.22372787,"ECCENTRICITY":0.00267955,"INCLINATION":98.6489,"RA_OF_ASC_NODE":154.0342,"ARG_OF_PERICENTER":180.4296,"MEAN_ANOMALY":179.6918,"EPHEMERIS_TYPE":0,"CLASSIFICATION_TYPE":"U","NORAD_CAT_ID":54601,"ELEMENT_SET_NO":999,"REV_AT_EPOCH":17694,"BSTAR":0.011449911,"MEAN_MOTION_DOT":0.00276508,"MEAN_MOTION_DDOT":0}]
